{"type": "FeatureCollection", "features": [ {"type": "Feature", "properties": {"norad_id": 66639, "name": "STARLINK-35908", "group": "last-30-days", "lat": -37.854774689683815, "lon": 47.33409361417084, "alt_km": 409.93910782359126, "timestamp": "2025-12-11T18:59:44.811366+00:00", "meta": {"OBJECT_NAME": "STARLINK-35908", "OBJECT_ID": "2025-271Y", "EPOCH": "2025-12-11T06:00:02.999808", "MEAN_MOTION": 15.56430241, "ECCENTRICITY": 0.00010633, "INCLINATION": 53.1596, "RA_OF_ASC_NODE": 194.3058, "ARG_OF_PERICENTER": 79.979, "MEAN_ANOMALY": 356.857, "EPHEMERIS_TYPE": 0, "CLASSIFICATION_TYPE": "U", "NORAD_CAT_ID": 66639, "ELEMENT_SET_NO": 999, "REV_AT_EPOCH": 400, "BSTAR": -0.032934597, "MEAN_MOTION_DOT": -0.02108297, "MEAN_MOTION_DDOT": 0}, "tle": {"line1": "1 66639U 25271Y   25345.25003472 -.02108297  00000+0 -32935-1 0  9992", "line2": "2 66639  53.1596 194.3058 0001063  79.9790 356.8570 15.56430241  4001"}}, "geometry": {"type": "Point", "coordinates": [47.33409361417084, -37.854774689683815]}}, {"type": "Feature", "properties": {"norad_id": 66640, "name": "STARLINK-35921", "group": "last-30-days", "lat": -39.0841263576693, "lon": 49.20265154378627, "alt_km": 410.01264811227975, "timestamp": "2025-12-11T18:59:44.811377+00:00", "meta": {"OBJECT_NAME": "STARLINK-35921", "OBJECT_ID": "2025-271Z", "EPOCH": "2025-12-11T06:00:02.999808", "MEAN_MOTION": 15.56433262, "ECCENTRICITY": 0.00010475, "INCLINATION": 53.1597, "RA_OF_ASC_NODE": 194.3019, "ARG_OF_PERICENTER": 79.0628, "MEAN_ANOMALY": 359.6883, "EPHEMERIS_TYPE": 0, "CLASSIFICATION_TYPE": "U", "NORAD_CAT_ID": 66640, "ELEMENT_SET_NO": 999, "REV_AT_EPOCH": 400, "BSTAR": -0.032995088, "MEAN_MOTION_DOT": -0.02111943, "MEAN_MOTION_DDOT": 0}, "tle": {"line1": "1 66640U 25271Z   25345.25003472 -.02111943  00000+0 -32995-1 0  9992", "line2": "2 66640  53.1597 194.3019 0001047  79.0628 359.6883 15.56433262  4008"}}, "geometry": {"type": "Point", "coordinates": [49.20265154378627, -39.0841263576693]}}, {"type": "Feature", "properties": {"norad_id": 66641, "name": "STARLINK-35923", "group": "last-30-days", "lat": -43.666437712726875, "lon": 57.36674437405797, "alt_km": 410.2568346883181, "timestamp": "2025-12-11T18:59:44.811388+00:00", "meta": {"OBJECT_NAME": "STARLINK-35923", "OBJECT_ID": "2025-271AA", "EPOCH": "2025-12-11T06:00:02.999808", "MEAN_MOTION": 15.56431098, "ECCENTRICITY": 0.00010731, "INCLINATION": 53.1595, "RA_OF_ASC_NODE": 194.2849, "ARG_OF_PERICENTER": 87.2248, "MEAN_ANOMALY": 359.1966, "EPHEMERIS_TYPE": 0, "CLASSIFICATION_TYPE": "U", "NORAD_CAT_ID": 66641, "ELEMENT_SET_NO": 999, "REV_AT_EPOCH": 400, "BSTAR": -0.03299369, "MEAN_MOTION_DOT": -0.02111728, "MEAN_MOTION_DDOT": 0}, "tle": {"line1": "1 66641U 25271AA  25345.25003472 -.02111728  00000+0 -32994-1 0  9993", "line2": "2 66641  53.1595 194.2849 0001073  87.2248 359.1966 15.56431098  4007"}}, "geometry": {"type": "Point", "coordinates": [57.36674437405797, -43.666437712726875]}}, {"type": "Feature", "properties": {"norad_id": 66642, "name": "STARLINK-35926", "group": "last-30-days", "lat": -42.5771760733104, "lon": 55.21776862594821, "alt_km": 410.26822972712944, "timestamp": "2025-12-11T18:59:44.811398+00:00", "meta": {"OBJECT_NAME": "STARLINK-35926", "OBJECT_ID": "2025-271AB", "EPOCH": "2025-12-11T06:00:02.999808", "MEAN_MOTION": 15.56432556, "ECCENTRICITY": 0.00010988, "INCLINATION": 53.1595, "RA_OF_ASC_NODE": 194.2898, "ARG_OF_PERICENTER": 73.9559, "MEAN_ANOMALY": 10.5476, "EPHEMERIS_TYPE": 0, "CLASSIFICATION_TYPE": "U", "NORAD_CAT_ID": 66642, "ELEMENT_SET_NO": 999, "REV_AT_EPOCH": 376, "BSTAR": -0.032977866, "MEAN_MOTION_DOT": -0.02110947, "MEAN_MOTION_DDOT": 0}, "tle": {"line1": "1 66642U 25271AB  25345.25003472 -.02110947  00000+0 -32978-1 0  9998", "line2": "2 66642  53.1595 194.2898 0001098  73.9559  10.5476 15.56432556  3762"}}, "geometry": {"type": "Point", "coordinates": [55.21776862594821, -42.5771760733104]}}, {"type": "Feature", "properties": {"norad_id": 66643, "name": "STARLINK-35918", "group": "last-30-days", "lat": -40.283667344821076, "lon": 51.13911524337749, "alt_km": 410.1169886700891, "timestamp": "2025-12-11T18:59:44.811408+00:00", "meta": {"OBJECT_NAME": "STARLINK-35918", "OBJECT_ID": "2025-271AC", "EPOCH": "2025-12-11T06:00:02.999808", "MEAN_MOTION": 15.56431586, "ECCENTRICITY": 0.00010954, "INCLINATION": 53.1597, "RA_OF_ASC_NODE": 194.2982, "ARG_OF_PERICENTER": 77.835, "MEAN_ANOMALY": 2.8338, "EPHEMERIS_TYPE": 0, "CLASSIFICATION_TYPE": "U", "NORAD_CAT_ID": 66643, "ELEMENT_SET_NO": 999, "REV_AT_EPOCH": 400, "BSTAR": -0.032943421, "MEAN_MOTION_DOT": -0.02108914, "MEAN_MOTION_DDOT": 0}, "tle": {"line1": "1 66643U 25271AC  25345.25003472 -.02108914  00000+0 -32943-1 0  9992", "line2": "2 66643  53.1597 194.2982 0001095  77.8350   2.8338 15.56431586  4009"}}, "geometry": {"type": "Point", "coordinates": [51.13911524337749, -40.283667344821076]}}, {"type": "Feature", "properties": {"norad_id": 66644, "name": "STARLINK-35938", "group": "last-30-days", "lat": -41.44782459814583, "lon": 53.14149520556609, "alt_km": 410.17571374520776, "timestamp": "2025-12-11T18:59:44.811421+00:00", "meta": {"OBJECT_NAME": "STARLINK-35938", "OBJECT_ID": "2025-271AD", "EPOCH": "2025-12-11T06:00:02.999808", "MEAN_MOTION": 15.5643164, "ECCENTRICITY": 0.0001061, "INCLINATION": 53.1595, "RA_OF_ASC_NODE": 194.2942, "ARG_OF_PERICENTER": 74.5918, "MEAN_ANOMALY": 7.994, "EPHEMERIS_TYPE": 0, "CLASSIFICATION_TYPE": "U", "NORAD_CAT_ID": 66644, "ELEMENT_SET_NO": 999, "REV_AT_EPOCH": 400, "BSTAR": -0.032954569, "MEAN_MOTION_DOT": -0.02109531, "MEAN_MOTION_DDOT": 0}, "tle": {"line1": "1 66644U 25271AD  25345.25003472 -.02109531  00000+0 -32955-1 0  9992", "line2": "2 66644  53.1595 194.2942 0001061  74.5918   7.9940 15.56431640  4007"}}, "geometry": {"type": "Point", "coordinates": [53.14149520556609, -41.44782459814583]}}, {"type": "Feature", "properties": {"norad_id": 66645, "name": "SHENZHOU-22", "group": "last-30-days", "lat": -20.359247342899494, "lon": -132.689346817205, "alt_km": 397.7415613358089, "timestamp": "2025-12-11T18:59:44.811432+00:00", "meta": {"OBJECT_NAME": "SHENZHOU-22", "OBJECT_ID": "2025-272A", "EPOCH": "2025-12-11T05:47:37.417056", "MEAN_MOTION": 15.59084729, "ECCENTRICITY": 0.00086412, "INCLINATION": 41.4683, "RA_OF_ASC_NODE": 25.8033, "ARG_OF_PERICENTER": 18.034, "MEAN_ANOMALY": 342.0803, "EPHEMERIS_TYPE": 0, "CLASSIFICATION_TYPE": "U", "NORAD_CAT_ID": 66645, "ELEMENT_SET_NO": 999, "REV_AT_EPOCH": 26357, "BSTAR": 0.00049057627, "MEAN_MOTION_DOT": 0.00039326, "MEAN_MOTION_DDOT": 0}, "tle": {"line1": "1 66645U 25272A   25345.24140529  .00039326  00000+0  49058-3 0  9992", "line2": "2 66645  41.4683  25.8033 0008641  18.0340 342.0803 15.59084729263574"}}, "geometry": {"type": "Point", "coordinates": [-132.689346817205, -20.359247342899494]}}, {"type": "Feature", "properties": {"norad_id": 66647, "name": "COSMOS 2597 (RODNIK-S 22)", "group": "last-30-days", "lat": -11.270678964573948, "lon": 108.54239667340124, "alt_km": 1503.5033624317357, "timestamp": "2025-12-11T18:59:44.811442+00:00", "meta": {"OBJECT_NAME": "COSMOS 2597 (RODNIK-S 22)", "OBJECT_ID": "2025-273A", "EPOCH": "2025-12-11T06:22:04.626912", "MEAN_MOTION": 12.41951328, "ECCENTRICITY": 0.00079232, "INCLINATION": 82.4986, "RA_OF_ASC_NODE": 287.3645, "ARG_OF_PERICENTER": 292.6717, "MEAN_ANOMALY": 67.3524, "EPHEMERIS_TYPE": 0, "CLASSIFICATION_TYPE": "U", "NORAD_CAT_ID": 66647, "ELEMENT_SET_NO": 999, "REV_AT_EPOCH": 195, "BSTAR": 0.00021460918, "MEAN_MOTION_DOT": 3.9e-07, "MEAN_MOTION_DDOT": 0}, "tle": {"line1": "1 66647U 25273A   25345.26533133  .00000039  00000+0  21461-3 0  9991", "line2": "2 66647  82.4986 287.3645 0007923 292.6717  67.3524 12.41951328  1956"}}, "geometry": {"type": "Point", "coordinates": [108.54239667340124, -11.270678964573948]}}, {"type": "Feature", "properties": {"norad_id": 66648, "name": "COSMOS 2598 (RODNIK-S 23)", "group": "last-30-days", "lat": -41.10559104726806, "lon": 113.63679719010054, "alt_km": 1496.0814865499497, "timestamp": "2025-12-11T18:59:44.811453+00:00", "meta": {"OBJECT_NAME": "COSMOS 2598 (RODNIK-S 23)", "OBJECT_ID": "2025-273B", "EPOCH": "2025-12-10T20:33:20.105280", "MEAN_MOTION": 12.42861563, "ECCENTRICITY": 0.00072453, "INCLINATION": 82.5033, "RA_OF_ASC_NODE": 287.6211, "ARG_OF_PERICENTER": 255.7215, "MEAN_ANOMALY": 104.3061, "EPHEMERIS_TYPE": 0, "CLASSIFICATION_TYPE": "U", "NORAD_CAT_ID": 66648, "ELEMENT_SET_NO": 999, "REV_AT_EPOCH": 190, "BSTAR": 6.0954808e-05, "MEAN_MOTION_DOT": 1.8e-07, "MEAN_MOTION_DDOT": 0}, "tle": {"line1": "1 66648U 25273B   25344.85648270  .00000018  00000+0  60955-4 0  9994", "line2": "2 66648  82.5033 287.6211 0007245 255.7215 104.3061 12.42861563  1908"}}, "geometry": {"type": "Point", "coordinates": [113.63679719010054, -41.10559104726806]}}, {"type": "Feature", "properties": {"norad_id": 66649, "name": "COSMOS 2599 (RODNIK-S 24)", "group": "last-30-days", "lat": 4.783028176384642, "lon": 106.42333901644311, "alt_km": 1505.1768711435561, "timestamp": "2025-12-11T18:59:44.811463+00:00", "meta": {"OBJECT_NAME": "COSMOS 2599 (RODNIK-S 24)", "OBJECT_ID": "2025-273C", "EPOCH": "2025-12-11T06:27:07.974720", "MEAN_MOTION": 12.41672317, "ECCENTRICITY": 0.00079115, "INCLINATION": 82.502, "RA_OF_ASC_NODE": 287.3788, "ARG_OF_PERICENTER": 301.5203, "MEAN_ANOMALY": 58.5103, "EPHEMERIS_TYPE": 0, "CLASSIFICATION_TYPE": "U", "NORAD_CAT_ID": 66649, "ELEMENT_SET_NO": 999, "REV_AT_EPOCH": 195, "BSTAR": -0.00045135269, "MEAN_MOTION_DOT": -5.2e-07, "MEAN_MOTION_DDOT": 0}, "tle": {"line1": "1 66649U 25273C   25345.26884230 -.00000052  00000+0 -45135-3 0  9991", "line2": "2 66649  82.5020 287.3788 0007911 301.5203  58.5103 12.41672317  1956"}}, "geometry": {"type": "Point", "coordinates": [106.42333901644311, 4.783028176384642]}}]}